prediction:
  azimuth_start: 22
  azimuth_stop: 166
  azimuth_tca: null
  max_elevation: 27
  tca: null
  time_start: 2020-04-24 07:54:00
  time_stop: 2020-04-24 08:07:00
satellite:
  name: Delfi-C3
  noradid: '32789'
  tle:
    line1: 1 32789U 08021G   20114.58017538 +.00001111 +00000-0 +76831-4 0  9998
    line2: 2 32789 097.4241 159.2877 0013358 138.6142 221.6101 15.07616796653546
station:
  name: DopTrack
  position:
    altitude: 95
    latitude: 51.9989
    longitude: 4.3733585
tracking:
  epoch: 2020-04-24 07:54:03.640614
  fca: 145868272.81186897
  fca_error: 0.5799357404922626
  tca: 2020-04-24 08:00:53.111513
  tca_error: 0.04291005091418375
